{
  "type": "FeatureCollection",
  "features": [
    {
      "type": "Feature",
      "properties": {
        "norad_id": 44624,
        "name": "EUTELSAT 5 WEST B (EGNOS/PRN 121)",
        "group": "gnss",
        "lat": -0.04915127763124453,
        "lon": -54.36779896214199,
        "alt_km": 35776.149901375706,
        "timestamp": "2025-12-19T14:48:36.490929+00:00",
        "meta_object_name": "EUTELSAT 5 WEST B (EGNOS/PRN 121)",
        "meta_object_id": "2019-067A",
        "meta_epoch": "2025-12-19T06:23:28.768416",
        "meta_mean_motion": 1.00271263,
        "meta_eccentricity": 0.00029971,
        "meta_inclination": 0.0687,
        "meta_ra_of_asc_node": 332.7359,
        "meta_arg_of_pericenter": 295.3999,
        "meta_mean_anomaly": 270.859,
        "meta_ephemeris_type": 0,
        "meta_classification_type": "U",
        "meta_norad_cat_id": 44624,
        "meta_element_set_no": 999,
        "meta_rev_at_epoch": 2263,
        "meta_bstar": 0,
        "meta_mean_motion_dot": -1.7e-07,
        "meta_mean_motion_ddot": 0,
        "tle_line1": "1 44624U 19067A   25353.26630519 -.00000017  00000+0  00000+0 0  9990",
        "tle_line2": "2 44624   0.0687 332.7359 0002997 295.3999 270.8590  1.00271263 22634"
      },
      "geometry": {
        "type": "Point",
        "coordinates": [
          -54.36779896214199,
          -0.04915127763124453
        ]
      }
    },
    {
      "type": "Feature",
      "properties": {
        "norad_id": 44709,
        "name": "BEIDOU-3 IGSO-3 (C40)",
        "group": "gnss",
        "lat": 31.956474029684884,
        "lon": 77.07549419503786,
        "alt_km": 35673.86282737313,
        "timestamp": "2025-12-19T14:48:36.490940+00:00",
        "meta_object_name": "BEIDOU-3 IGSO-3 (C40)",
        "meta_object_id": "2019-073A",
        "meta_epoch": "2025-11-20T07:11:22.740000",
        "meta_mean_motion": 1.00250097,
        "meta_eccentricity": 0.0044538,
        "meta_inclination": 55.163,
        "meta_ra_of_asc_node": 283.159,
        "meta_arg_of_pericenter": 191.5856,
        "meta_mean_anomaly": 168.2409,
        "meta_ephemeris_type": 0,
        "meta_classification_type": "U",
        "meta_norad_cat_id": 44709,
        "meta_element_set_no": 999,
        "meta_rev_at_epoch": 2236,
        "meta_bstar": 0,
        "meta_mean_motion_dot": -2.06e-06,
        "meta_mean_motion_ddot": 0,
        "tle_line1": "1 44709U 19073A   25324.29956875 -.00000206  00000+0  00000+0 0  9998",
        "tle_line2": "2 44709  55.1630 283.1590 0044538 191.5856 168.2409  1.00250097 22360"
      },
      "geometry": {
        "type": "Point",
        "coordinates": [
          77.07549419503786,
          31.956474029684884
        ]
      }
    },
    {
      "type": "Feature",
      "properties": {
        "norad_id": 44793,
        "name": "BEIDOU-3 M22 (C44)",
        "group": "gnss",
        "lat": -53.35629587175847,
        "lon": -130.47855459163864,
        "alt_km": 21538.372785536576,
        "timestamp": "2025-12-19T14:48:36.490956+00:00",
        "meta_object_name": "BEIDOU-3 M22 (C44)",
        "meta_object_id": "2019-078A",
        "meta_epoch": "2025-12-18T03:05:10.380768",
        "meta_mean_motion": 1.86232153,
        "meta_eccentricity": 0.00060099,
        "meta_inclination": 54.1032,
        "meta_ra_of_asc_node": 306.1968,
        "meta_arg_of_pericenter": 24.2925,
        "meta_mean_anomaly": 335.7236,
        "meta_ephemeris_type": 0,
        "meta_classification_type": "U",
        "meta_norad_cat_id": 44793,
        "meta_element_set_no": 999,
        "meta_rev_at_epoch": 4127,
        "meta_bstar": 0,
        "meta_mean_motion_dot": -8.5e-07,
        "meta_mean_motion_ddot": 0,
        "tle_line1": "1 44793U 19078A   25352.12859237 -.00000085  00000+0  00000+0 0  9998",
        "tle_line2": "2 44793  54.1032 306.1968 0006009  24.2925 335.7236  1.86232153 41270"
      },
      "geometry": {
        "type": "Point",
        "coordinates": [
          -130.47855459163864,
          -53.35629587175847
        ]
      }
    },
    {
      "type": "Feature",
      "properties": {
        "norad_id": 44794,
        "name": "BEIDOU-3 M21 (C43)",
        "group": "gnss",
        "lat": -4.5508046830236655,
        "lon": 129.3898099893775,
        "alt_km": 21540.629235228775,
        "timestamp": "2025-12-19T14:48:36.490971+00:00",
        "meta_object_name": "BEIDOU-3 M21 (C43)",
        "meta_object_id": "2019-078B",
        "meta_epoch": "2025-12-16T15:43:55.727904",
        "meta_mean_motion": 1.86227668,
        "meta_eccentricity": 0.00041169,
        "meta_inclination": 54.078,
        "meta_ra_of_asc_node": 306.2132,
        "meta_arg_of_pericenter": 11.942,
        "meta_mean_anomaly": 348.0544,
        "meta_ephemeris_type": 0,
        "meta_classification_type": "U",
        "meta_norad_cat_id": 44794,
        "meta_element_set_no": 999,
        "meta_rev_at_epoch": 4125,
        "meta_bstar": 0,
        "meta_mean_motion_dot": -9.5e-07,
        "meta_mean_motion_ddot": 0,
        "tle_line1": "1 44794U 19078B   25350.65550611 -.00000095  00000+0  00000+0 0  9990",
        "tle_line2": "2 44794  54.0780 306.2132 0004116  11.9420 348.0544  1.86227668 41256"
      },
      "geometry": {
        "type": "Point",
        "coordinates": [
          129.3898099893775,
          -4.5508046830236655
        ]
      }
    },
    {
      "type": "Feature",
      "properties": {
        "norad_id": 44850,
        "name": "COSMOS 2544 (759)",
        "group": "gnss",
        "lat": -53.05704244217078,
        "lon": -62.936419979646594,
        "alt_km": 19100.834954276612,
        "timestamp": "2025-12-19T14:48:36.490984+00:00",
        "meta_object_name": "COSMOS 2544 (759)",
        "meta_object_id": "2019-088A",
        "meta_epoch": "2025-12-16T11:40:43.010688",
        "meta_mean_motion": 2.13101965,
        "meta_eccentricity": 0.00138869,
        "meta_inclination": 65.4623,
        "meta_ra_of_asc_node": 79.8328,
        "meta_arg_of_pericenter": 249.7945,
        "meta_mean_anomaly": 110.0707,
        "meta_ephemeris_type": 0,
        "meta_classification_type": "U",
        "meta_norad_cat_id": 44850,
        "meta_element_set_no": 999,
        "meta_rev_at_epoch": 4682,
        "meta_bstar": 0,
        "meta_mean_motion_dot": -5.3e-07,
        "meta_mean_motion_ddot": 0,
        "tle_line1": "1 44850U 19088A   25350.48660892 -.00000053  00000+0  00000+0 0  9992",
        "tle_line2": "2 44850  65.4623  79.8328 0013886 249.7945 110.0707  2.13101965 46826"
      },
      "geometry": {
        "type": "Point",
        "coordinates": [
          -62.936419979646594,
          -53.05704244217078
        ]
      }
    },
    {
      "type": "Feature",
      "properties": {
        "norad_id": 44864,
        "name": "BEIDOU-3 M19 (C41)",
        "group": "gnss",
        "lat": 17.823918614491834,
        "lon": 81.07323204461113,
        "alt_km": 21531.653832422147,
        "timestamp": "2025-12-19T14:48:36.490996+00:00",
        "meta_object_name": "BEIDOU-3 M19 (C41)",
        "meta_object_id": "2019-090A",
        "meta_epoch": "2025-12-19T01:07:39.122112",
        "meta_mean_motion": 1.86231633,
        "meta_eccentricity": 0.00181901,
        "meta_inclination": 56.3984,
        "meta_ra_of_asc_node": 68.7523,
        "meta_arg_of_pericenter": 285.0515,
        "meta_mean_anomaly": 74.1026,
        "meta_ephemeris_type": 0,
        "meta_classification_type": "U",
        "meta_norad_cat_id": 44864,
        "meta_element_set_no": 999,
        "meta_rev_at_epoch": 4087,
        "meta_bstar": 0,
        "meta_mean_motion_dot": -5.7e-07,
        "meta_mean_motion_ddot": 0,
        "tle_line1": "1 44864U 19090A   25353.04698058 -.00000057  00000+0  00000+0 0  9994",
        "tle_line2": "2 44864  56.3984  68.7523 0018190 285.0515  74.1026  1.86231633 40871"
      },
      "geometry": {
        "type": "Point",
        "coordinates": [
          81.07323204461113,
          17.823918614491834
        ]
      }
    },
    {
      "type": "Feature",
      "properties": {
        "norad_id": 44865,
        "name": "BEIDOU-3 M20 (C42)",
        "group": "gnss",
        "lat": 51.05513215166476,
        "lon": -166.43354230865938,
        "alt_km": 21564.6854452894,
        "timestamp": "2025-12-19T14:48:36.491007+00:00",
        "meta_object_name": "BEIDOU-3 M20 (C42)",
        "meta_object_id": "2019-090B",
        "meta_epoch": "2025-12-18T13:12:22.451040",
        "meta_mean_motion": 1.86231689,
        "meta_eccentricity": 0.00154108,
        "meta_inclination": 56.3994,
        "meta_ra_of_asc_node": 68.8029,
        "meta_arg_of_pericenter": 297.0214,
        "meta_mean_anomaly": 178.7198,
        "meta_ephemeris_type": 0,
        "meta_classification_type": "U",
        "meta_norad_cat_id": 44865,
        "meta_element_set_no": 999,
        "meta_rev_at_epoch": 4085,
        "meta_bstar": 0,
        "meta_mean_motion_dot": -6.2e-07,
        "meta_mean_motion_ddot": 0,
        "tle_line1": "1 44865U 19090B   25352.55025985 -.00000062  00000+0  00000+0 0  9999",
        "tle_line2": "2 44865  56.3994  68.8029 0015410 297.0214 178.7198  1.86231689 40856"
      },
      "geometry": {
        "type": "Point",
        "coordinates": [
          -166.43354230865938,
          51.05513215166476
        ]
      }
    }
  ]
}